SL-3 R/B                
1 13403U 82079B   26037.49088517  .00007061  00000+0  28524-3 0  9994
2 13403  81.1438 229.9057 0024092 272.2878  87.5596 15.24345045372943
SL-14 R/B               
1 13553U 82092B   26037.33992568  .00000786  00000+0  85438-4 0  9993
2 13553  82.5700 170.7126 0021465  48.2715 341.8204 14.86631016324276
SL-3 R/B                
1 13819U 83010B   26037.42995706  .00018171  00000+0  37891-3 0  9992
2 13819  81.1023  40.5407 0017793 150.6944 209.5302 15.45254078353110
SL-3 R/B                
1 14208U 83075B   26037.52271090  .00014539  00000+0  39295-3 0  9994
2 14208  97.6133  40.9446 0021405 346.8723  13.1961 15.37609946325368
COSMOS 1536             
1 14699U 84013A   26036.99848499  .00009353  00000+0  39052-3 0  9993
2 14699  82.5476 139.3348 0015065  38.6998 321.5315 15.23402379267791
SL-14 R/B               
1 14820U 84027B   26037.11155611  .00000576  00000+0  62955-4 0  9993
2 14820  82.5402 274.6355 0019523  78.9578 281.3833 14.85945460242949
SL-8 R/B                
1 15483U 85006B   26037.29441528  .00000355  00000+0  12629-3 0  9998
2 15483  74.0475 318.9174 0019568 242.7173 266.4442 14.37767400149515
SL-12 R/B(2)            
1 15772U 85042D   26037.53399167  .00000142  00000+0  85301-4 0  9999
2 15772  71.1086 153.5503 0035073 177.9322 258.9337 14.21973325109967
SL-14 R/B               
1 15945U 85069B   26037.50980500  .00000677  00000+0  73840-4 0  9992
2 15945  82.5240  54.2591 0017379 298.1865  61.7596 14.86396311168202
SL-16 R/B               
1 16182U 85097B   26037.41513835  .00000033  00000+0  40687-4 0  9999
2 16182  71.0014 206.3913 0009508 296.3419  86.3310 14.16596303 82800
SL-14 R/B               
1 16496U 86006B   26037.15855216  .00000999  00000+0  10343-3 0  9997
2 16496  82.5271 289.4148 0077164  18.3588 342.0385 14.86771380144523
COSMOS 1743             
1 16719U 86034A   26037.15791827  .00041793  00000+0  59208-3 0  9993
2 16719  82.5330 106.8624 0005187  59.3539 300.8226 15.56279843175340
