CCSDS_OMM_VERS = 2.0
CREATION_DATE  = 
ORIGINATOR     = 

OBJECT_NAME    = SL-3 R/B
OBJECT_ID      = 1982-079B
CENTER_NAME    = EARTH
REF_FRAME      = TEME
TIME_SYSTEM    = UTC
MEAN_ELEMENT_THEORY = SGP/SGP4

EPOCH          = 2026-02-06T11:46:52.478688
MEAN_MOTION    = 15.24345045
ECCENTRICITY   = .0024092
INCLINATION    = 81.1438
RA_OF_ASC_NODE = 229.9057
ARG_OF_PERICENTER = 272.2878
MEAN_ANOMALY   = 87.5596

EPHEMERIS_TYPE = 0
CLASSIFICATION_TYPE = U
NORAD_CAT_ID   = 13403
ELEMENT_SET_NO = 999
REV_AT_EPOCH   = 37294
BSTAR          = .28524E-3
MEAN_MOTION_DOT = .7061E-4
MEAN_MOTION_DDOT = 0

CCSDS_OMM_VERS = 2.0
CREATION_DATE  = 
ORIGINATOR     = 

OBJECT_NAME    = SL-14 R/B
OBJECT_ID      = 1982-092B
CENTER_NAME    = EARTH
REF_FRAME      = TEME
TIME_SYSTEM    = UTC
MEAN_ELEMENT_THEORY = SGP/SGP4

EPOCH          = 2026-02-06T08:09:29.578752
MEAN_MOTION    = 14.86631016
ECCENTRICITY   = .0021465
INCLINATION    = 82.5700
RA_OF_ASC_NODE = 170.7126
ARG_OF_PERICENTER = 48.2715
MEAN_ANOMALY   = 341.8204

EPHEMERIS_TYPE = 0
CLASSIFICATION_TYPE = U
NORAD_CAT_ID   = 13553
ELEMENT_SET_NO = 999
REV_AT_EPOCH   = 32427
BSTAR          = .85438E-4
MEAN_MOTION_DOT = .786E-5
MEAN_MOTION_DDOT = 0

CCSDS_OMM_VERS = 2.0
CREATION_DATE  = 
ORIGINATOR     = 

OBJECT_NAME    = SL-3 R/B
OBJECT_ID      = 1983-010B
CENTER_NAME    = EARTH
REF_FRAME      = TEME
TIME_SYSTEM    = UTC
MEAN_ELEMENT_THEORY = SGP/SGP4

EPOCH          = 2026-02-06T10:19:08.289984
MEAN_MOTION    = 15.45254078
ECCENTRICITY   = .0017793
INCLINATION    = 81.1023
RA_OF_ASC_NODE = 40.5407
ARG_OF_PERICENTER = 150.6944
MEAN_ANOMALY   = 209.5302

EPHEMERIS_TYPE = 0
CLASSIFICATION_TYPE = U
NORAD_CAT_ID   = 13819
ELEMENT_SET_NO = 999
REV_AT_EPOCH   = 35311
BSTAR          = .37891E-3
MEAN_MOTION_DOT = .18171E-3
MEAN_MOTION_DDOT = 0

CCSDS_OMM_VERS = 2.0
CREATION_DATE  = 
ORIGINATOR     = 

OBJECT_NAME    = SL-3 R/B
OBJECT_ID      = 1983-075B
CENTER_NAME    = EARTH
REF_FRAME      = TEME
TIME_SYSTEM    = UTC
MEAN_ELEMENT_THEORY = SGP/SGP4

EPOCH          = 2026-02-06T12:32:42.221760
MEAN_MOTION    = 15.37609946
ECCENTRICITY   = .0021405
INCLINATION    = 97.6133
RA_OF_ASC_NODE = 40.9446
ARG_OF_PERICENTER = 346.8723
MEAN_ANOMALY   = 13.1961

EPHEMERIS_TYPE = 0
CLASSIFICATION_TYPE = U
NORAD_CAT_ID   = 14208
ELEMENT_SET_NO = 999
REV_AT_EPOCH   = 32536
BSTAR          = .39295E-3
MEAN_MOTION_DOT = .14539E-3
MEAN_MOTION_DDOT = 0

CCSDS_OMM_VERS = 2.0
CREATION_DATE  = 
ORIGINATOR     = 

OBJECT_NAME    = COSMOS 1536
OBJECT_ID      = 1984-013A
CENTER_NAME    = EARTH
REF_FRAME      = TEME
TIME_SYSTEM    = UTC
MEAN_ELEMENT_THEORY = SGP/SGP4

EPOCH          = 2026-02-05T23:57:49.103136
MEAN_MOTION    = 15.23402379
ECCENTRICITY   = .00150658
INCLINATION    = 82.5476
RA_OF_ASC_NODE = 139.3348
ARG_OF_PERICENTER = 38.6998
MEAN_ANOMALY   = 321.5315

EPHEMERIS_TYPE = 0
CLASSIFICATION_TYPE = U
NORAD_CAT_ID   = 14699
ELEMENT_SET_NO = 999
REV_AT_EPOCH   = 26779
BSTAR          = .39051904E-3
MEAN_MOTION_DOT = .9353E-4
MEAN_MOTION_DDOT = 0

CCSDS_OMM_VERS = 2.0
CREATION_DATE  = 
ORIGINATOR     = 

OBJECT_NAME    = SL-14 R/B
OBJECT_ID      = 1984-027B
CENTER_NAME    = EARTH
REF_FRAME      = TEME
TIME_SYSTEM    = UTC
MEAN_ELEMENT_THEORY = SGP/SGP4

EPOCH          = 2026-02-06T02:40:38.447904
MEAN_MOTION    = 14.85945460
ECCENTRICITY   = .00195239
INCLINATION    = 82.5402
RA_OF_ASC_NODE = 274.6355
ARG_OF_PERICENTER = 78.9578
MEAN_ANOMALY   = 281.3833

EPHEMERIS_TYPE = 0
CLASSIFICATION_TYPE = U
NORAD_CAT_ID   = 14820
ELEMENT_SET_NO = 999
REV_AT_EPOCH   = 24294
BSTAR          = .62954598E-4
MEAN_MOTION_DOT = .576E-5
MEAN_MOTION_DDOT = 0

CCSDS_OMM_VERS = 2.0
CREATION_DATE  = 
ORIGINATOR     = 

OBJECT_NAME    = SL-8 R/B
OBJECT_ID      = 1985-006B
CENTER_NAME    = EARTH
REF_FRAME      = TEME
TIME_SYSTEM    = UTC
MEAN_ELEMENT_THEORY = SGP/SGP4

EPOCH          = 2026-02-06T07:03:57.480192
MEAN_MOTION    = 14.37767400
ECCENTRICITY   = .0019568
INCLINATION    = 74.0475
RA_OF_ASC_NODE = 318.9174
ARG_OF_PERICENTER = 242.7173
MEAN_ANOMALY   = 266.4442

EPHEMERIS_TYPE = 0
CLASSIFICATION_TYPE = U
NORAD_CAT_ID   = 15483
ELEMENT_SET_NO = 999
REV_AT_EPOCH   = 14951
BSTAR          = .12629E-3
MEAN_MOTION_DOT = .355E-5
MEAN_MOTION_DDOT = 0

CCSDS_OMM_VERS = 2.0
CREATION_DATE  = 
ORIGINATOR     = 

OBJECT_NAME    = SL-12 R/B(2)
OBJECT_ID      = 1985-042D
CENTER_NAME    = EARTH
REF_FRAME      = TEME
TIME_SYSTEM    = UTC
MEAN_ELEMENT_THEORY = SGP/SGP4

EPOCH          = 2026-02-06T12:48:56.880288
MEAN_MOTION    = 14.21973325
ECCENTRICITY   = .0035073
INCLINATION    = 71.1086
RA_OF_ASC_NODE = 153.5503
ARG_OF_PERICENTER = 177.9322
MEAN_ANOMALY   = 258.9337

EPHEMERIS_TYPE = 0
CLASSIFICATION_TYPE = U
NORAD_CAT_ID   = 15772
ELEMENT_SET_NO = 999
REV_AT_EPOCH   = 10996
BSTAR          = .85301E-4
MEAN_MOTION_DOT = .142E-5
MEAN_MOTION_DDOT = 0

CCSDS_OMM_VERS = 2.0
CREATION_DATE  = 
ORIGINATOR     = 

OBJECT_NAME    = SL-14 R/B
OBJECT_ID      = 1985-069B
CENTER_NAME    = EARTH
REF_FRAME      = TEME
TIME_SYSTEM    = UTC
MEAN_ELEMENT_THEORY = SGP/SGP4

EPOCH          = 2026-02-06T12:14:07.152000
MEAN_MOTION    = 14.86396311
ECCENTRICITY   = .0017379
INCLINATION    = 82.5240
RA_OF_ASC_NODE = 54.2591
ARG_OF_PERICENTER = 298.1865
MEAN_ANOMALY   = 61.7596

EPHEMERIS_TYPE = 0
CLASSIFICATION_TYPE = U
NORAD_CAT_ID   = 15945
ELEMENT_SET_NO = 999
REV_AT_EPOCH   = 16820
BSTAR          = .7384E-4
MEAN_MOTION_DOT = .677E-5
MEAN_MOTION_DDOT = 0

CCSDS_OMM_VERS = 2.0
CREATION_DATE  = 
ORIGINATOR     = 

OBJECT_NAME    = SL-16 R/B
OBJECT_ID      = 1985-097B
CENTER_NAME    = EARTH
REF_FRAME      = TEME
TIME_SYSTEM    = UTC
MEAN_ELEMENT_THEORY = SGP/SGP4

EPOCH          = 2026-02-06T09:57:47.953440
MEAN_MOTION    = 14.16596303
ECCENTRICITY   = .0009508
INCLINATION    = 71.0014
RA_OF_ASC_NODE = 206.3913
ARG_OF_PERICENTER = 296.3419
MEAN_ANOMALY   = 86.3310

EPHEMERIS_TYPE = 0
CLASSIFICATION_TYPE = U
NORAD_CAT_ID   = 16182
ELEMENT_SET_NO = 999
REV_AT_EPOCH   = 8280
BSTAR          = .40687E-4
MEAN_MOTION_DOT = .33E-6
MEAN_MOTION_DDOT = 0

CCSDS_OMM_VERS = 2.0
CREATION_DATE  = 
ORIGINATOR     = 

OBJECT_NAME    = SL-14 R/B
OBJECT_ID      = 1986-006B
CENTER_NAME    = EARTH
REF_FRAME      = TEME
TIME_SYSTEM    = UTC
MEAN_ELEMENT_THEORY = SGP/SGP4

EPOCH          = 2026-02-06T03:48:18.906624
MEAN_MOTION    = 14.86771380
ECCENTRICITY   = .00771645
INCLINATION    = 82.5271
RA_OF_ASC_NODE = 289.4148
ARG_OF_PERICENTER = 18.3588
MEAN_ANOMALY   = 342.0385

EPHEMERIS_TYPE = 0
CLASSIFICATION_TYPE = U
NORAD_CAT_ID   = 16496
ELEMENT_SET_NO = 999
REV_AT_EPOCH   = 14452
BSTAR          = .103433E-3
MEAN_MOTION_DOT = .999E-5
MEAN_MOTION_DDOT = 0

CCSDS_OMM_VERS = 2.0
CREATION_DATE  = 
ORIGINATOR     = 

OBJECT_NAME    = COSMOS 1743
OBJECT_ID      = 1986-034A
CENTER_NAME    = EARTH
REF_FRAME      = TEME
TIME_SYSTEM    = UTC
MEAN_ELEMENT_THEORY = SGP/SGP4

EPOCH          = 2026-02-06T03:47:24.138528
MEAN_MOTION    = 15.56279843
ECCENTRICITY   = .00051871
INCLINATION    = 82.5330
RA_OF_ASC_NODE = 106.8624
ARG_OF_PERICENTER = 59.3539
MEAN_ANOMALY   = 300.8226

EPHEMERIS_TYPE = 0
CLASSIFICATION_TYPE = U
NORAD_CAT_ID   = 16719
ELEMENT_SET_NO = 999
REV_AT_EPOCH   = 17534
BSTAR          = .5920797E-3
MEAN_MOTION_DOT = .41793E-3
MEAN_MOTION_DDOT = 0

